[{"OBJECT_NAME":"STARLINK-5064","OBJECT_ID":"2023-014AP","EPOCH":"2026-03-09T11:07:06.880512","MEAN_MOTION":14.9833408,"ECCENTRICITY":0.00032333,"INCLINATION":69.9988,"RA_OF_ASC_NODE":85.2168,"ARG_OF_PERICENTER":269.8115,"MEAN_ANOMALY":90.2673,"EPHEMERIS_TYPE":0,"CLASSIFICATION_TYPE":"U","NORAD_CAT_ID":55428,"ELEMENT_SET_NO":999,"REV_AT_EPOCH":17152,"BSTAR":6.7171096e-5,"MEAN_MOTION_DOT":7.09e-6,"MEAN_MOTION_DDOT":0},{"OBJECT_NAME":"COSMOS 2221","OBJECT_ID":"1992-080A","EPOCH":"2026-03-09T23:19:19.777152","MEAN_MOTION":14.9620142,"ECCENTRICITY":0.00140703,"INCLINATION":82.5011,"RA_OF_ASC_NODE":278.8108,"ARG_OF_PERICENTER":186.0623,"MEAN_ANOMALY":174.0431,"EPHEMERIS_TYPE":0,"CLASSIFICATION_TYPE":"U","NORAD_CAT_ID":22236,"ELEMENT_SET_NO":999,"REV_AT_EPOCH":78083,"BSTAR":0.00019500053,"MEAN_MOTION_DOT":2.227e-5,"MEAN_MOTION_DDOT":0}]
